{
  "type": "FeatureCollection",
  "features": [
    {
      "type": "Feature",
      "properties": {
        "norad_id": 43208,
        "name": "BEIDOU-3 M3 (C21)",
        "group": "beidou",
        "lat": -12.813165866007132,
        "lon": 60.86739477039494,
        "alt_km": 21514.38120686784,
        "timestamp": "2025-12-06T11:28:11.328046+00:00",
        "meta_object_name": "BEIDOU-3 M3 (C21)",
        "meta_object_id": "2018-018B",
        "meta_epoch": "2025-12-03T06:41:57.693408",
        "meta_mean_motion": 1.86230862,
        "meta_eccentricity": 0.0006282,
        "meta_inclination": 56.4772,
        "meta_ra_of_asc_node": 69.6218,
        "meta_arg_of_pericenter": 317.5873,
        "meta_mean_anomaly": 42.3668,
        "meta_ephemeris_type": 0,
        "meta_classification_type": "U",
        "meta_norad_cat_id": 43208,
        "meta_element_set_no": 999,
        "meta_rev_at_epoch": 5309,
        "meta_bstar": 0,
        "meta_mean_motion_dot": -4.9e-07,
        "meta_mean_motion_ddot": 0,
        "tle_line1": "1 43208U 18018B   25337.27913997 -.00000049  00000+0  00000+0 0  9994",
        "tle_line2": "2 43208  56.4772  69.6218 0006282 317.5873  42.3668  1.86230862 53096"
      },
      "geometry": {
        "type": "Point",
        "coordinates": [
          60.86739477039494,
          -12.813165866007132
        ]
      }
    },
    {
      "type": "Feature",
      "properties": {
        "norad_id": 43245,
        "name": "BEIDOU-3 M9 (C29)",
        "group": "beidou",
        "lat": -15.917043127784057,
        "lon": 138.45619490675804,
        "alt_km": 21529.467583167127,
        "timestamp": "2025-12-06T11:28:11.328057+00:00",
        "meta_object_name": "BEIDOU-3 M9 (C29)",
        "meta_object_id": "2018-029A",
        "meta_epoch": "2025-12-05T15:26:01.234176",
        "meta_mean_motion": 1.8622782,
        "meta_eccentricity": 0.00016771,
        "meta_inclination": 54.3723,
        "meta_ra_of_asc_node": 306.7152,
        "meta_arg_of_pericenter": 275.3412,
        "meta_mean_anomaly": 84.622,
        "meta_ephemeris_type": 0,
        "meta_classification_type": "U",
        "meta_norad_cat_id": 43245,
        "meta_element_set_no": 999,
        "meta_rev_at_epoch": 5228,
        "meta_bstar": 0,
        "meta_mean_motion_dot": -6.9e-07,
        "meta_mean_motion_ddot": 0,
        "tle_line1": "1 43245U 18029A   25339.64306984 -.00000069  00000+0  00000+0 0  9994",
        "tle_line2": "2 43245  54.3723 306.7152 0001677 275.3412  84.6220  1.86227820 52288"
      },
      "geometry": {
        "type": "Point",
        "coordinates": [
          138.45619490675804,
          -15.917043127784057
        ]
      }
    },
    {
      "type": "Feature",
      "properties": {
        "norad_id": 43246,
        "name": "BEIDOU-3 M10 (C30)",
        "group": "beidou",
        "lat": -46.451748834617796,
        "lon": 175.62983632144736,
        "alt_km": 21538.600449866582,
        "timestamp": "2025-12-06T11:28:11.328068+00:00",
        "meta_object_name": "BEIDOU-3 M10 (C30)",
        "meta_object_id": "2018-029B",
        "meta_epoch": "2025-12-05T00:59:36.820032",
        "meta_mean_motion": 1.86228856,
        "meta_eccentricity": 0.00040279,
        "meta_inclination": 54.3703,
        "meta_ra_of_asc_node": 306.7635,
        "meta_arg_of_pericenter": 0.0249,
        "meta_mean_anomaly": 359.9572,
        "meta_ephemeris_type": 0,
        "meta_classification_type": "U",
        "meta_norad_cat_id": 43246,
        "meta_element_set_no": 999,
        "meta_rev_at_epoch": 5226,
        "meta_bstar": 0,
        "meta_mean_motion_dot": -6.9e-07,
        "meta_mean_motion_ddot": 0,
        "tle_line1": "1 43246U 18029B   25339.04139838 -.00000069  00000+0  00000+0 0  9991",
        "tle_line2": "2 43246  54.3703 306.7635 0004027   0.0249 359.9572  1.86228856 52262"
      },
      "geometry": {
        "type": "Point",
        "coordinates": [
          175.62983632144736,
          -46.451748834617796
        ]
      }
    },
    {
      "type": "Feature",
      "properties": {
        "norad_id": 43539,
        "name": "BEIDOU-2 IGSO-7 (C16)",
        "group": "beidou",
        "lat": -10.959982143913324,
        "lon": -7.518629661862151,
        "alt_km": 35499.615421692084,
        "timestamp": "2025-12-06T11:28:11.328079+00:00",
        "meta_object_name": "BEIDOU-2 IGSO-7 (C16)",
        "meta_object_id": "2018-057A",
        "meta_epoch": "2025-12-05T10:47:37.682880",
        "meta_mean_motion": 1.00259009,
        "meta_eccentricity": 0.00924864,
        "meta_inclination": 55.1731,
        "meta_ra_of_asc_node": 164.7355,
        "meta_arg_of_pericenter": 235.1723,
        "meta_mean_anomaly": 307.8171,
        "meta_ephemeris_type": 0,
        "meta_classification_type": "U",
        "meta_norad_cat_id": 43539,
        "meta_element_set_no": 999,
        "meta_rev_at_epoch": 2718,
        "meta_bstar": 0,
        "meta_mean_motion_dot": -4.7e-07,
        "meta_mean_motion_ddot": 0,
        "tle_line1": "1 43539U 18057A   25339.44974170 -.00000047  00000+0  00000+0 0  9993",
        "tle_line2": "2 43539  55.1731 164.7355 0092486 235.1723 307.8171  1.00259009 27182"
      },
      "geometry": {
        "type": "Point",
        "coordinates": [
          -7.518629661862151,
          -10.959982143913324
        ]
      }
    },
    {
      "type": "Feature",
      "properties": {
        "norad_id": 43581,
        "name": "BEIDOU-3 M5 (C23)",
        "group": "beidou",
        "lat": 53.99012175349374,
        "lon": -76.93464308588457,
        "alt_km": 21523.10002947888,
        "timestamp": "2025-12-06T11:28:11.328091+00:00",
        "meta_object_name": "BEIDOU-3 M5 (C23)",
        "meta_object_id": "2018-062A",
        "meta_epoch": "2025-12-04T04:36:50.793120",
        "meta_mean_motion": 1.86228551,
        "meta_eccentricity": 0.0002115,
        "meta_inclination": 54.0891,
        "meta_ra_of_asc_node": 188.9344,
        "meta_arg_of_pericenter": 351.3867,
        "meta_mean_anomaly": 8.7024,
        "meta_ephemeris_type": 0,
        "meta_classification_type": "U",
        "meta_norad_cat_id": 43581,
        "meta_element_set_no": 999,
        "meta_rev_at_epoch": 5000,
        "meta_bstar": 0,
        "meta_mean_motion_dot": 1.07e-06,
        "meta_mean_motion_ddot": 0,
        "tle_line1": "1 43581U 18062A   25338.19225455  .00000107  00000+0  00000+0 0  9998",
        "tle_line2": "2 43581  54.0891 188.9344 0002115 351.3867   8.7024  1.86228551 50003"
      },
      "geometry": {
        "type": "Point",
        "coordinates": [
          -76.93464308588457,
          53.99012175349374
        ]
      }
    },
    {
      "type": "Feature",
      "properties": {
        "norad_id": 43582,
        "name": "BEIDOU-3 M6 (C24)",
        "group": "beidou",
        "lat": -3.540124543629177,
        "lon": 11.424476111220205,
        "alt_km": 21544.962566620135,
        "timestamp": "2025-12-06T11:28:11.328102+00:00",
        "meta_object_name": "BEIDOU-3 M6 (C24)",
        "meta_object_id": "2018-062B",
        "meta_epoch": "2025-12-04T14:12:56.874816",
        "meta_mean_motion": 1.862296,
        "meta_eccentricity": 0.00077069,
        "meta_inclination": 54.0887,
        "meta_ra_of_asc_node": 188.9098,
        "meta_arg_of_pericenter": 46.0149,
        "meta_mean_anomaly": 314.1395,
        "meta_ephemeris_type": 0,
        "meta_classification_type": "U",
        "meta_norad_cat_id": 43582,
        "meta_element_set_no": 999,
        "meta_rev_at_epoch": 5001,
        "meta_bstar": 0,
        "meta_mean_motion_dot": 1.02e-06,
        "meta_mean_motion_ddot": 0,
        "tle_line1": "1 43582U 18062B   25338.59232494  .00000102  00000+0  00000+0 0  9999",
        "tle_line2": "2 43582  54.0887 188.9098 0007706  46.0149 314.1395  1.86229600 50019"
      },
      "geometry": {
        "type": "Point",
        "coordinates": [
          11.424476111220205,
          -3.540124543629177
        ]
      }
    },
    {
      "type": "Feature",
      "properties": {
        "norad_id": 43602,
        "name": "BEIDOU-3 M12 (C26)",
        "group": "beidou",
        "lat": -35.691509789973594,
        "lon": 38.84368620851211,
        "alt_km": 21558.180781309304,
        "timestamp": "2025-12-06T11:28:11.328113+00:00",
        "meta_object_name": "BEIDOU-3 M12 (C26)",
        "meta_object_id": "2018-067A",
        "meta_epoch": "2025-12-05T01:36:30.437280",
        "meta_mean_motion": 1.86227634,
        "meta_eccentricity": 0.0009145,
        "meta_inclination": 54.1831,
        "meta_ra_of_asc_node": 187.6237,
        "meta_arg_of_pericenter": 40.6372,
        "meta_mean_anomaly": 319.5174,
        "meta_ephemeris_type": 0,
        "meta_classification_type": "U",
        "meta_norad_cat_id": 43602,
        "meta_element_set_no": 999,
        "meta_rev_at_epoch": 4950,
        "meta_bstar": 0,
        "meta_mean_motion_dot": 9.5e-07,
        "meta_mean_motion_ddot": 0,
        "tle_line1": "1 43602U 18067A   25339.06701895  .00000095  00000+0  00000+0 0  9997",
        "tle_line2": "2 43602  54.1831 187.6237 0009145  40.6372 319.5174  1.86227634 49501"
      },
      "geometry": {
        "type": "Point",
        "coordinates": [
          38.84368620851211,
          -35.691509789973594
        ]
      }
    }
  ]
}